{"type": "FeatureCollection", "features": [ {"type": "Feature", "properties": {"norad_id": 64901, "name": "CO3D 4", "group": "resource", "lat": -56.579579652732036, "lon": -124.20354163564168, "alt_km": 511.9370375519484, "timestamp": "2025-12-16T21:38:56.827805+00:00", "meta": {"OBJECT_NAME": "CO3D 4", "OBJECT_ID": "2025-156C", "EPOCH": "2025-12-16T07:58:14.221056", "MEAN_MOTION": 15.20198549, "ECCENTRICITY": 9.975e-05, "INCLINATION": 97.4346, "RA_OF_ASC_NODE": 66.648, "ARG_OF_PERICENTER": 184.8541, "MEAN_ANOMALY": 175.2685, "EPHEMERIS_TYPE": 0, "CLASSIFICATION_TYPE": "U", "NORAD_CAT_ID": 64901, "ELEMENT_SET_NO": 999, "REV_AT_EPOCH": 2175, "BSTAR": 0.00021555533, "MEAN_MOTION_DOT": 4.601e-05, "MEAN_MOTION_DDOT": 0}, "tle": {"line1": "1 64901U 25156C   25350.33210904  .00004601  00000+0  21556-3 0  9998", "line2": "2 64901  97.4346  66.6480 0000997 184.8541 175.2685 15.20198549 21754"}}, "geometry": {"type": "Point", "coordinates": [-124.20354163564168, -56.579579652732036]}}, {"type": "Feature", "properties": {"norad_id": 64902, "name": "CO3D 2", "group": "resource", "lat": 81.69837868979724, "lon": 3.8783387035115413, "alt_km": 496.77544860546277, "timestamp": "2025-12-16T21:38:56.827815+00:00", "meta": {"OBJECT_NAME": "CO3D 2", "OBJECT_ID": "2025-156D", "EPOCH": "2025-12-12T21:01:26.694624", "MEAN_MOTION": 15.22031437, "ECCENTRICITY": 0.00203863, "INCLINATION": 97.4215, "RA_OF_ASC_NODE": 63.2016, "ARG_OF_PERICENTER": 351.3096, "MEAN_ANOMALY": 8.7784, "EPHEMERIS_TYPE": 0, "CLASSIFICATION_TYPE": "U", "NORAD_CAT_ID": 64902, "ELEMENT_SET_NO": 999, "REV_AT_EPOCH": 2122, "BSTAR": 0.00010503321, "MEAN_MOTION_DOT": 2.342e-05, "MEAN_MOTION_DDOT": 0}, "tle": {"line1": "1 64902U 25156D   25346.87600341  .00002342  00000+0  10503-3 0  9991", "line2": "2 64902  97.4215  63.2016 0020386 351.3096   8.7784 15.22031437 21224"}}, "geometry": {"type": "Point", "coordinates": [3.8783387035115413, 81.69837868979724]}}, {"type": "Feature", "properties": {"norad_id": 64903, "name": "CO3D 1", "group": "resource", "lat": 60.28509657795006, "lon": 53.413385086918794, "alt_km": 514.3359040547184, "timestamp": "2025-12-16T21:38:56.827826+00:00", "meta": {"OBJECT_NAME": "CO3D 1", "OBJECT_ID": "2025-156E", "EPOCH": "2025-12-16T04:00:25.468416", "MEAN_MOTION": 15.20791505, "ECCENTRICITY": 0.00972738, "INCLINATION": 97.3553, "RA_OF_ASC_NODE": 65.7768, "ARG_OF_PERICENTER": 168.7709, "MEAN_ANOMALY": 191.573, "EPHEMERIS_TYPE": 0, "CLASSIFICATION_TYPE": "U", "NORAD_CAT_ID": 64903, "ELEMENT_SET_NO": 999, "REV_AT_EPOCH": 2172, "BSTAR": 0.00030129064, "MEAN_MOTION_DOT": 7.477e-05, "MEAN_MOTION_DDOT": 0}, "tle": {"line1": "1 64903U 25156E   25350.16696144  .00007477  00000+0  30129-3 0  9995", "line2": "2 64903  97.3553  65.7768 0097273 168.7709 191.5730 15.20791505 21724"}}, "geometry": {"type": "Point", "coordinates": [53.413385086918794, 60.28509657795006]}}, {"type": "Feature", "properties": {"norad_id": 66514, "name": "SENTINEL-6B", "group": "resource", "lat": -31.597134441615943, "lon": -10.34061084137371, "alt_km": 1336.9413734429827, "timestamp": "2025-12-16T21:38:56.827836+00:00", "meta": {"OBJECT_NAME": "SENTINEL-6B", "OBJECT_ID": "2025-264A", "EPOCH": "2025-12-12T06:01:21.430272", "MEAN_MOTION": 12.81479576, "ECCENTRICITY": 0.0007847, "INCLINATION": 66.0385, "RA_OF_ASC_NODE": 163.4531, "ARG_OF_PERICENTER": 270.1745, "MEAN_ANOMALY": 89.8371, "EPHEMERIS_TYPE": 0, "CLASSIFICATION_TYPE": "U", "NORAD_CAT_ID": 66514, "ELEMENT_SET_NO": 999, "REV_AT_EPOCH": 322, "BSTAR": 0.00018864317, "MEAN_MOTION_DOT": -1.7e-07, "MEAN_MOTION_DDOT": 0}, "tle": {"line1": "1 66514U 25264A   25346.25094248 -.00000017  00000+0  18864-3 0  9993", "line2": "2 66514  66.0385 163.4531 0007847 270.1745  89.8371 12.81479576  3220"}}, "geometry": {"type": "Point", "coordinates": [-10.34061084137371, -31.597134441615943]}}]}